QIANFAN-60              
1 62790U 25016F   26004.51763614  .00000216  00000+0  31598-3 0  9990
2 62790  88.9758 100.7225 0013999 276.0118  83.9437 13.50991768 50305
QIANFAN-61              
1 62791U 25016G   26004.55049586  .00000096  00000+0  12964-3 0  9992
2 62791  88.9825 100.8976 0012956 275.1662  84.8010 13.50981912 50320
QIANFAN-62              
1 62792U 25016H   26004.48058941  .00000210  00000+0  30695-3 0  9999
2 62792  88.9772 100.7609 0014320 275.9682  83.9837 13.50984746 50304
QIANFAN-63              
1 62793U 25016J   26004.43117348  .00000206  00000+0  30075-3 0  9999
2 62793  88.9778 100.7191 0014349 282.1426  77.8117 13.50982858 50332
QIANFAN-64              
1 62794U 25016K   26004.39825495  .00000202  00000+0  29422-3 0  9994
2 62794  88.9765 100.6935 0012335 274.0620  85.9121 13.50986305 50328
QIANFAN-65              
1 62795U 25016L   26004.46822014  .00000200  00000+0  29197-3 0  9994
2 62795  88.9761 100.7114 0012160 275.7160  84.2604 13.50980017 50319
QIANFAN-66              
1 62796U 25016M   26004.42296721  .00000205  00000+0  29925-3 0  9995
2 62796  88.9781 100.6907 0013304 271.0282  88.9345 13.50984966 50350
QIANFAN-67              
1 62797U 25016N   26004.42714696  .00000209  00000+0  30549-3 0  9990
2 62797  88.9771 100.7136 0013219 278.8543  81.1112 13.50989119 50324
QIANFAN-68              
1 62798U 25016P   26004.49288050  .00000196  00000+0  28446-3 0  9996
2 62798  88.9775 100.7529 0013279 276.6204  83.3435 13.50981056 50314
QIANFAN-69              
1 62799U 25016Q   26004.43527038  .00000218  00000+0  31874-3 0  9997
2 62799  88.9753 100.6233 0014025 278.1714  81.7846 13.50981461 50346
QIANFAN-70              
1 62800U 25016R   26004.45182976  .00000199  00000+0  28901-3 0  9995
2 62800  88.9774 100.7650 0013721 267.2277  92.7303 13.50985216 50309
QIANFAN-71              
1 62801U 25016S   26004.52169928  .00000204  00000+0  29827-3 0  9991
2 62801  88.9768 100.7358 0013921 281.8985  78.0605 13.50984716 50315
QIANFAN-72              
1 62802U 25016T   26004.53814921  .00000202  00000+0  29368-3 0  9991
2 62802  88.9759 100.7453 0017171 289.9812  69.9489 13.50984499 50307
QIANFAN-73              
1 63159U 25046A   26004.49125696  .00000233  00000+0  34112-3 0  9996
2 63159  88.9783 317.6695 0016929  60.3339 299.9496 13.50984684 50480
QIANFAN-74              
1 63160U 25046B   26004.47467978  .00000228  00000+0  33442-3 0  9997
2 63160  88.9783 317.5600 0001973  70.6830 289.4534 13.50981658 50542
QIANFAN-75              
1 63161U 25046C   26004.46190136  .00000255  00000+0  37654-3 0  9995
2 63161  88.9784 317.7953 0018123  62.7742 297.5253 13.50987858 50418
QIANFAN-76              
1 63162U 25046D   26004.45855301  .00000225  00000+0  33002-3 0  9997
2 63162  88.9783 317.7761 0015681  63.5569 296.7189 13.50987019 50426
QIANFAN-77              
1 63163U 25046E   26004.47762913  .00000653  00000+0  46590-3 0  9997
2 63163  88.9784 315.5948 0015870  17.3426 342.8289 13.96111124 51623
QIANFAN-78              
1 63164U 25046F   26004.42539141  .00000251  00000+0  37039-3 0  9990
2 63164  88.9782 317.6433 0017067  65.4993 294.7935 13.50985576 50494
QIANFAN-79              
1 63165U 25046G   26004.45402285  .00000253  00000+0  37210-3 0  9995
2 63165  88.9786 317.7487 0016751  63.9261 296.3612 13.50987429 50443
QIANFAN-80              
1 63166U 25046H   26004.47057675  .00000251  00000+0  37019-3 0  9992
2 63166  88.9784 317.4534 0015736  67.6824 292.5993 13.50985486 50609
QIANFAN-81              
1 63167U 25046J   26004.52259404  .00000263  00000+0  38843-3 0  9992
2 63167  88.9784 317.5158 0016677  57.2980 302.9777 13.51011609 50565
QIANFAN-82              
1 63168U 25046K   26004.48303822  .00000250  00000+0  36776-3 0  9991
2 63168  88.9784 317.5639 0014875  64.4944 295.7744 13.50984412 50549
QIANFAN-83              
1 63169U 25046L   26004.47357323  .00000308  00000+0  38325-3 0  9992
2 63169  88.9784 317.2966 0016023  50.5738 309.6834 13.61984762 50695
QIANFAN-84              
1 63170U 25046M   26004.51066495  .00000247  00000+0  36301-3 0  9990
2 63170  88.9783 317.6936 0017815  61.0704 299.2232 13.50994500 50478
QIANFAN-85              
1 63171U 25046N   26004.50758597  .00000254  00000+0  37503-3 0  9994
2 63171  88.9783 317.5656 0015219  63.3739 296.8969 13.50985521 50547
QIANFAN-86              
1 63172U 25046P   26004.44185650  .00000259  00000+0  38259-3 0  9996
2 63172  88.9786 317.4351 0013127  67.4413 292.8126 13.50985057 50615
QIANFAN-87              
1 63173U 25046Q   26004.48728786  .00000264  00000+0  38938-3 0  9994
2 63173  88.9781 317.5412 0013746  63.2517 297.0039 13.50982617 50558
QIANFAN-88              
1 63174U 25046R   26004.50351021  .00000252  00000+0  37152-3 0  9996
2 63174  88.9784 317.4946 0014187  70.0214 290.2464 13.50989174 50588
QIANFAN-89              
1 63175U 25046S   26004.46638265  .00000244  00000+0  35872-3 0  9998
2 63175  88.9784 317.6875 0018499  61.4271 298.8739 13.50985280 50470
QIANFAN-90              
1 63176U 25046T   26004.49511694  .00000252  00000+0  37125-3 0  9990
2 63176  88.9784 317.6569 0015423  60.1815 300.0867 13.50985274 50498
QIANFAN-91              
1 66033U 25233A   26004.45854517  .00000162  00000+0  21691-3 0  9994
2 66033  88.9934  59.8016 0011376 333.7313  26.3262 13.55187717 11076
QIANFAN-92              
1 66034U 25233B   26004.52825395  .00000048  00000+0  56795-4 0  9992
2 66034  88.9917  59.7822 0014555 337.3482  22.7025 13.50256849 11087
QIANFAN-93              
1 66035U 25233C   26004.46892274  .00000071  00000+0  88218-4 0  9997
2 66035  88.9943  59.7974 0013230 337.2818  22.7747 13.52899090 11079
QIANFAN-94              
1 66036U 25233D   26004.52786389  .00000193  00000+0  21011-3 0  9996
2 66036  88.9941  59.7523 0014303 334.7755  25.2706 13.68549170 11107
QIANFAN-95              
1 66037U 25233E   26004.46896111  .00000340  00000+0  19511-3 0  9991
2 66037  88.9939  59.5052 0013103 338.5287  21.5344 14.07045489 11238
QIANFAN-96              
1 66038U 25233F   26004.49098172  .00000051  00000+0  59797-4 0  9996
2 66038  88.9936  59.7996 0014327 340.0207  20.0382 13.52221702 11075
QIANFAN-97              
1 66039U 25233G   26004.49371574  .00000148  00000+0  18831-3 0  9997
2 66039  88.9939  59.7827 0014482 345.5377  14.5362 13.57813913 11085
QIANFAN-98              
1 66040U 25233H   26004.50998734  .00000228  00000+0  19830-3 0  9993
2 66040  88.9930  59.6382 0013619 336.9453  23.1103 13.82584063 11160
QIANFAN-99              
1 66041U 25233J   26004.51904660  .00000166  00000+0  21400-3 0  9997
2 66041  88.9938  59.7862 0014059 338.1518  21.9036 13.57810097 11081
QIANFAN-100             
1 66042U 25233K   26004.43614791  .00000058  00000+0  62364-4 0  9997
2 66042  88.9948  59.7028 0014011 341.6352  18.4296 13.59132227 11128
QIANFAN-101             
1 66043U 25233L   26004.53103189  .00000350  00000+0  13868-3 0  9992
2 66043  88.9937  59.4026 0013282 327.9974  32.0411 14.26689990 11296
QIANFAN-102             
1 66044U 25233M   26004.50744498  .00000186  00000+0  20810-3 0  9996
2 66044  88.9936  59.7484 0013804 339.2955  20.7644 13.66802787 11108
QIANFAN-103             
1 66045U 25233N   26004.51935740  .00000169  00000+0  21736-3 0  9999
2 66045  88.9939  59.7863 0013620 340.9769  19.0876 13.57797122 11082
QIANFAN-104             
1 66046U 25233P   26004.48316242  .00000201  00000+0  20961-3 0  9992
2 66046  88.9940  59.7467 0013247 343.1349  16.9372 13.71548129 11106
QIANFAN-105             
1 66047U 25233Q   26004.48227272  .00000270  00000+0  20635-3 0  9991
2 66047  88.9942  59.6559 0014303 338.1033  21.9527 13.90525655 11151
QIANFAN-106             
1 66048U 25233R   26004.45771839  .00000151  00000+0  19233-3 0  9992
2 66048  88.9927  59.7741 0014017 335.5603  24.4886 13.57813851 11084
QIANFAN-107             
1 66049U 25233S   26004.46300301  .00000160  00000+0  20483-3 0  9995
2 66049  88.9941  59.7792 0013767 340.2368  19.8251 13.57810652 11089
QIANFAN-108             
1 66050U 25233T   26004.52062524  .00000058  00000+0  67632-4 0  9990
2 66050  88.9935  59.7679 0013660 340.2612  19.8011 13.54394965 11098
